CCSDS_OMM_VERS = 2.0
CREATION_DATE  = 
ORIGINATOR     = 

OBJECT_NAME    = STARLINK-36889
OBJECT_ID      = 2026-039W
CENTER_NAME    = EARTH
REF_FRAME      = TEME
TIME_SYSTEM    = UTC
MEAN_ELEMENT_THEORY = SGP/SGP4

EPOCH          = 2026-03-14T22:00:01.999584
MEAN_MOTION    = 15.75495781
ECCENTRICITY   = .00015511
INCLINATION    = 42.9997
RA_OF_ASC_NODE = 22.7330
ARG_OF_PERICENTER = 260.0458
MEAN_ANOMALY   = 137.7243

EPHEMERIS_TYPE = 0
CLASSIFICATION_TYPE = U
NORAD_CAT_ID   = 68006
ELEMENT_SET_NO = 999
REV_AT_EPOCH   = 371
BSTAR          = -.14140745E-1
MEAN_MOTION_DOT = -.1924066E-1
MEAN_MOTION_DDOT = 0

CCSDS_OMM_VERS = 2.0
CREATION_DATE  = 
ORIGINATOR     = 

OBJECT_NAME    = STARLINK-36592
OBJECT_ID      = 2026-039X
CENTER_NAME    = EARTH
REF_FRAME      = TEME
TIME_SYSTEM    = UTC
MEAN_ELEMENT_THEORY = SGP/SGP4

EPOCH          = 2026-03-14T08:06:34.045056
MEAN_MOTION    = 15.82138752
ECCENTRICITY   = .00016501
INCLINATION    = 42.9994
RA_OF_ASC_NODE = 26.2236
ARG_OF_PERICENTER = 258.5091
MEAN_ANOMALY   = 101.5596

EPHEMERIS_TYPE = 0
CLASSIFICATION_TYPE = U
NORAD_CAT_ID   = 68007
ELEMENT_SET_NO = 999
REV_AT_EPOCH   = 237
BSTAR          = .15301359E-2
MEAN_MOTION_DOT = .336422E-2
MEAN_MOTION_DDOT = 0

CCSDS_OMM_VERS = 2.0
CREATION_DATE  = 
ORIGINATOR     = 

OBJECT_NAME    = STARLINK-36911
OBJECT_ID      = 2026-039Y
CENTER_NAME    = EARTH
REF_FRAME      = TEME
TIME_SYSTEM    = UTC
MEAN_ELEMENT_THEORY = SGP/SGP4

EPOCH          = 2026-03-14T08:05:38.752512
MEAN_MOTION    = 15.81312629
ECCENTRICITY   = .000269
INCLINATION    = 42.9989
RA_OF_ASC_NODE = 26.2186
ARG_OF_PERICENTER = 279.3856
MEAN_ANOMALY   = 80.6711

EPHEMERIS_TYPE = 0
CLASSIFICATION_TYPE = U
NORAD_CAT_ID   = 68008
ELEMENT_SET_NO = 999
REV_AT_EPOCH   = 237
BSTAR          = -.25901433E-2
MEAN_MOTION_DOT = -.49916E-2
MEAN_MOTION_DDOT = 0

CCSDS_OMM_VERS = 2.0
CREATION_DATE  = 
ORIGINATOR     = 

OBJECT_NAME    = STARLINK-36956
OBJECT_ID      = 2026-039Z
CENTER_NAME    = EARTH
REF_FRAME      = TEME
TIME_SYSTEM    = UTC
MEAN_ELEMENT_THEORY = SGP/SGP4

EPOCH          = 2026-03-14T22:00:01.999584
MEAN_MOTION    = 15.77219953
ECCENTRICITY   = .00015625
INCLINATION    = 42.9995
RA_OF_ASC_NODE = 22.6799
ARG_OF_PERICENTER = 262.2910
MEAN_ANOMALY   = 156.7362

EPHEMERIS_TYPE = 0
CLASSIFICATION_TYPE = U
NORAD_CAT_ID   = 68009
ELEMENT_SET_NO = 999
REV_AT_EPOCH   = 371
BSTAR          = -.13082978E-1
MEAN_MOTION_DOT = -.1923301E-1
MEAN_MOTION_DDOT = 0

CCSDS_OMM_VERS = 2.0
CREATION_DATE  = 
ORIGINATOR     = 

OBJECT_NAME    = STARLINK-36953
OBJECT_ID      = 2026-039AA
CENTER_NAME    = EARTH
REF_FRAME      = TEME
TIME_SYSTEM    = UTC
MEAN_ELEMENT_THEORY = SGP/SGP4

EPOCH          = 2026-03-14T21:40:26.086944
MEAN_MOTION    = 15.82443878
ECCENTRICITY   = .00034254
INCLINATION    = 42.9993
RA_OF_ASC_NODE = 22.7154
ARG_OF_PERICENTER = 238.9687
MEAN_ANOMALY   = 121.0849

EPHEMERIS_TYPE = 0
CLASSIFICATION_TYPE = U
NORAD_CAT_ID   = 68010
ELEMENT_SET_NO = 999
REV_AT_EPOCH   = 246
BSTAR          = .36774868E-2
MEAN_MOTION_DOT = .874293E-2
MEAN_MOTION_DDOT = 0

CCSDS_OMM_VERS = 2.0
CREATION_DATE  = 
ORIGINATOR     = 

OBJECT_NAME    = STARLINK-36991
OBJECT_ID      = 2026-039AB
CENTER_NAME    = EARTH
REF_FRAME      = TEME
TIME_SYSTEM    = UTC
MEAN_ELEMENT_THEORY = SGP/SGP4

EPOCH          = 2026-03-14T22:00:01.999584
MEAN_MOTION    = 15.66606777
ECCENTRICITY   = .00016169
INCLINATION    = 42.9994
RA_OF_ASC_NODE = 22.8776
ARG_OF_PERICENTER = 255.0183
MEAN_ANOMALY   = 84.3928

EPHEMERIS_TYPE = 0
CLASSIFICATION_TYPE = U
NORAD_CAT_ID   = 68011
ELEMENT_SET_NO = 999
REV_AT_EPOCH   = 371
BSTAR          = -.20433541E-1
MEAN_MOTION_DOT = -.1945649E-1
MEAN_MOTION_DDOT = 0

CCSDS_OMM_VERS = 2.0
CREATION_DATE  = 
ORIGINATOR     = 

OBJECT_NAME    = STARLINK-36936
OBJECT_ID      = 2026-039AC
CENTER_NAME    = EARTH
REF_FRAME      = TEME
TIME_SYSTEM    = UTC
MEAN_ELEMENT_THEORY = SGP/SGP4

EPOCH          = 2026-03-14T22:00:01.999584
MEAN_MOTION    = 15.77002057
ECCENTRICITY   = .00012171
INCLINATION    = 42.9994
RA_OF_ASC_NODE = 22.6276
ARG_OF_PERICENTER = 262.6985
MEAN_ANOMALY   = 176.7625

EPHEMERIS_TYPE = 0
CLASSIFICATION_TYPE = U
NORAD_CAT_ID   = 68012
ELEMENT_SET_NO = 999
REV_AT_EPOCH   = 371
BSTAR          = -.1321865E-1
MEAN_MOTION_DOT = -.1923771E-1
MEAN_MOTION_DDOT = 0

CCSDS_OMM_VERS = 2.0
CREATION_DATE  = 
ORIGINATOR     = 

OBJECT_NAME    = STARLINK-36967
OBJECT_ID      = 2026-039AD
CENTER_NAME    = EARTH
REF_FRAME      = TEME
TIME_SYSTEM    = UTC
MEAN_ELEMENT_THEORY = SGP/SGP4

EPOCH          = 2026-03-14T22:00:01.999584
MEAN_MOTION    = 15.68028265
ECCENTRICITY   = .00015985
INCLINATION    = 42.9997
RA_OF_ASC_NODE = 22.8551
ARG_OF_PERICENTER = 258.5301
MEAN_ANOMALY   = 90.3257

EPHEMERIS_TYPE = 0
CLASSIFICATION_TYPE = U
NORAD_CAT_ID   = 68013
ELEMENT_SET_NO = 999
REV_AT_EPOCH   = 371
BSTAR          = -.19302672E-1
MEAN_MOTION_DOT = -.1948364E-1
MEAN_MOTION_DDOT = 0

CCSDS_OMM_VERS = 2.0
CREATION_DATE  = 
ORIGINATOR     = 

OBJECT_NAME    = STARLINK-36985
OBJECT_ID      = 2026-039AE
CENTER_NAME    = EARTH
REF_FRAME      = TEME
TIME_SYSTEM    = UTC
MEAN_ELEMENT_THEORY = SGP/SGP4

EPOCH          = 2026-03-14T21:38:17.017440
MEAN_MOTION    = 15.82425935
ECCENTRICITY   = .00024697
INCLINATION    = 42.9989
RA_OF_ASC_NODE = 22.7037
ARG_OF_PERICENTER = 205.0808
MEAN_ANOMALY   = 154.9944

EPHEMERIS_TYPE = 0
CLASSIFICATION_TYPE = U
NORAD_CAT_ID   = 68014
ELEMENT_SET_NO = 999
REV_AT_EPOCH   = 246
BSTAR          = .32628349E-2
MEAN_MOTION_DOT = .765213E-2
MEAN_MOTION_DDOT = 0

CCSDS_OMM_VERS = 2.0
CREATION_DATE  = 
ORIGINATOR     = 

OBJECT_NAME    = STARLINK-36335
OBJECT_ID      = 2026-040A
CENTER_NAME    = EARTH
REF_FRAME      = TEME
TIME_SYSTEM    = UTC
MEAN_ELEMENT_THEORY = SGP/SGP4

EPOCH          = 2026-03-14T22:00:01.999584
MEAN_MOTION    = 15.92990038
ECCENTRICITY   = .00012635
INCLINATION    = 97.2711
RA_OF_ASC_NODE = 22.5371
ARG_OF_PERICENTER = 104.4135
MEAN_ANOMALY   = 209.8524

EPHEMERIS_TYPE = 0
CLASSIFICATION_TYPE = U
NORAD_CAT_ID   = 68015
ELEMENT_SET_NO = 999
REV_AT_EPOCH   = 321
BSTAR          = -.40735293E-2
MEAN_MOTION_DOT = -.1403268E-1
MEAN_MOTION_DDOT = .56948561E-3

CCSDS_OMM_VERS = 2.0
CREATION_DATE  = 
ORIGINATOR     = 

OBJECT_NAME    = STARLINK-36923
OBJECT_ID      = 2026-040B
CENTER_NAME    = EARTH
REF_FRAME      = TEME
TIME_SYSTEM    = UTC
MEAN_ELEMENT_THEORY = SGP/SGP4

EPOCH          = 2026-03-14T22:00:01.999584
MEAN_MOTION    = 15.93142662
ECCENTRICITY   = .00011471
INCLINATION    = 97.2716
RA_OF_ASC_NODE = 22.5412
ARG_OF_PERICENTER = 88.0314
MEAN_ANOMALY   = 234.6350

EPHEMERIS_TYPE = 0
CLASSIFICATION_TYPE = U
NORAD_CAT_ID   = 68016
ELEMENT_SET_NO = 999
REV_AT_EPOCH   = 326
BSTAR          = -.4350202E-2
MEAN_MOTION_DOT = -.1509303E-1
MEAN_MOTION_DDOT = .65271823E-3

CCSDS_OMM_VERS = 2.0
CREATION_DATE  = 
ORIGINATOR     = 

OBJECT_NAME    = STARLINK-36568
OBJECT_ID      = 2026-040C
CENTER_NAME    = EARTH
REF_FRAME      = TEME
TIME_SYSTEM    = UTC
MEAN_ELEMENT_THEORY = SGP/SGP4

EPOCH          = 2026-03-14T22:00:01.999584
MEAN_MOTION    = 15.93207313
ECCENTRICITY   = .00013316
INCLINATION    = 97.2713
RA_OF_ASC_NODE = 22.5427
ARG_OF_PERICENTER = 77.4911
MEAN_ANOMALY   = 249.1550

EPHEMERIS_TYPE = 0
CLASSIFICATION_TYPE = U
NORAD_CAT_ID   = 68017
ELEMENT_SET_NO = 999
REV_AT_EPOCH   = 326
BSTAR          = -.44246078E-2
MEAN_MOTION_DOT = -.1539977E-1
MEAN_MOTION_DDOT = .67795837E-3

CCSDS_OMM_VERS = 2.0
CREATION_DATE  = 
ORIGINATOR     = 

OBJECT_NAME    = STARLINK-36930
OBJECT_ID      = 2026-040D
CENTER_NAME    = EARTH
REF_FRAME      = TEME
TIME_SYSTEM    = UTC
MEAN_ELEMENT_THEORY = SGP/SGP4

EPOCH          = 2026-03-14T22:00:01.999584
MEAN_MOTION    = 15.93068226
ECCENTRICITY   = .00011118
INCLINATION    = 97.2710
RA_OF_ASC_NODE = 22.5391
ARG_OF_PERICENTER = 87.7137
MEAN_ANOMALY   = 230.7374

EPHEMERIS_TYPE = 0
CLASSIFICATION_TYPE = U
NORAD_CAT_ID   = 68018
ELEMENT_SET_NO = 999
REV_AT_EPOCH   = 326
BSTAR          = -.42035242E-2
MEAN_MOTION_DOT = -.1453375E-1
MEAN_MOTION_DDOT = .6081789E-3

CCSDS_OMM_VERS = 2.0
CREATION_DATE  = 
ORIGINATOR     = 

OBJECT_NAME    = STARLINK-36921
OBJECT_ID      = 2026-040E
CENTER_NAME    = EARTH
REF_FRAME      = TEME
TIME_SYSTEM    = UTC
MEAN_ELEMENT_THEORY = SGP/SGP4

EPOCH          = 2026-03-14T22:00:01.999584
MEAN_MOTION    = 15.93345641
ECCENTRICITY   = .00011527
INCLINATION    = 97.2721
RA_OF_ASC_NODE = 22.5465
ARG_OF_PERICENTER = 96.6449
MEAN_ANOMALY   = 237.4657

EPHEMERIS_TYPE = 0
CLASSIFICATION_TYPE = U
NORAD_CAT_ID   = 68019
ELEMENT_SET_NO = 999
REV_AT_EPOCH   = 326
BSTAR          = -.45427113E-2
MEAN_MOTION_DOT = -.1591878E-1
MEAN_MOTION_DDOT = .72194786E-3

CCSDS_OMM_VERS = 2.0
CREATION_DATE  = 
ORIGINATOR     = 

OBJECT_NAME    = STARLINK-36928
OBJECT_ID      = 2026-040F
CENTER_NAME    = EARTH
REF_FRAME      = TEME
TIME_SYSTEM    = UTC
MEAN_ELEMENT_THEORY = SGP/SGP4

EPOCH          = 2026-03-14T22:00:01.999584
MEAN_MOTION    = 15.93295043
ECCENTRICITY   = .00011788
INCLINATION    = 97.2713
RA_OF_ASC_NODE = 22.5436
ARG_OF_PERICENTER = 87.3978
MEAN_ANOMALY   = 242.6248

EPHEMERIS_TYPE = 0
CLASSIFICATION_TYPE = U
NORAD_CAT_ID   = 68020
ELEMENT_SET_NO = 999
REV_AT_EPOCH   = 326
BSTAR          = -.44922921E-2
MEAN_MOTION_DOT = -.1570315E-1
MEAN_MOTION_DDOT = .70355252E-3

